[{"OBJECT_NAME":"STARLINK-36918","OBJECT_ID":"2026-037AA","EPOCH":"2026-03-14T17:41:26.979648","MEAN_MOTION":15.82196578,"ECCENTRICITY":0.00013141,"INCLINATION":42.9986,"RA_OF_ASC_NODE":167.3742,"ARG_OF_PERICENTER":288.6923,"MEAN_ANOMALY":71.3806,"EPHEMERIS_TYPE":0,"CLASSIFICATION_TYPE":"U","NORAD_CAT_ID":67956,"ELEMENT_SET_NO":999,"REV_AT_EPOCH":405,"BSTAR":0.0019245169,"MEAN_MOTION_DOT":0.00429057,"MEAN_MOTION_DDOT":0},{"OBJECT_NAME":"STARLINK-36829","OBJECT_ID":"2026-037AB","EPOCH":"2026-03-14T16:12:41.922144","MEAN_MOTION":15.8214265,"ECCENTRICITY":0.0001634,"INCLINATION":42.9985,"RA_OF_ASC_NODE":167.7737,"ARG_OF_PERICENTER":278.5401,"MEAN_ANOMALY":81.5286,"EPHEMERIS_TYPE":0,"CLASSIFICATION_TYPE":"U","NORAD_CAT_ID":67957,"ELEMENT_SET_NO":999,"REV_AT_EPOCH":404,"BSTAR":0.0013998501,"MEAN_MOTION_DOT":0.00306719,"MEAN_MOTION_DDOT":0},{"OBJECT_NAME":"STARLINK-36799","OBJECT_ID":"2026-037AC","EPOCH":"2026-03-14T17:40:21.951552","MEAN_MOTION":15.82174498,"ECCENTRICITY":0.00015619,"INCLINATION":42.9983,"RA_OF_ASC_NODE":167.3678,"ARG_OF_PERICENTER":255.1788,"MEAN_ANOMALY":104.8911,"EPHEMERIS_TYPE":0,"CLASSIFICATION_TYPE":"U","NORAD_CAT_ID":67958,"ELEMENT_SET_NO":999,"REV_AT_EPOCH":405,"BSTAR":0.0014760529,"MEAN_MOTION_DOT":0.00324606,"MEAN_MOTION_DDOT":0},{"OBJECT_NAME":"STARLINK-36834","OBJECT_ID":"2026-037AD","EPOCH":"2026-03-14T17:38:12.684192","MEAN_MOTION":15.82136917,"ECCENTRICITY":0.00018383,"INCLINATION":42.9984,"RA_OF_ASC_NODE":167.3554,"ARG_OF_PERICENTER":256.574,"MEAN_ANOMALY":103.4927,"EPHEMERIS_TYPE":0,"CLASSIFICATION_TYPE":"U","NORAD_CAT_ID":67959,"ELEMENT_SET_NO":999,"REV_AT_EPOCH":405,"BSTAR":0.0013308347,"MEAN_MOTION_DOT":0.00290957,"MEAN_MOTION_DDOT":0},{"OBJECT_NAME":"STARLINK-36841","OBJECT_ID":"2026-037AE","EPOCH":"2026-03-14T17:39:17.063424","MEAN_MOTION":15.82183657,"ECCENTRICITY":0.00017928,"INCLINATION":42.9984,"RA_OF_ASC_NODE":167.3616,"ARG_OF_PERICENTER":253.4021,"MEAN_ANOMALY":106.6654,"EPHEMERIS_TYPE":0,"CLASSIFICATION_TYPE":"U","NORAD_CAT_ID":67960,"ELEMENT_SET_NO":999,"REV_AT_EPOCH":405,"BSTAR":0.0014551766,"MEAN_MOTION_DOT":0.00319971,"MEAN_MOTION_DDOT":0},{"OBJECT_NAME":"STARLINK-36912","OBJECT_ID":"2026-038A","EPOCH":"2026-03-14T22:00:01.999584","MEAN_MOTION":15.75140238,"ECCENTRICITY":0.00019315,"INCLINATION":97.286,"RA_OF_ASC_NODE":84.4796,"ARG_OF_PERICENTER":88.6229,"MEAN_ANOMALY":123.2441,"EPHEMERIS_TYPE":0,"CLASSIFICATION_TYPE":"U","NORAD_CAT_ID":67961,"ELEMENT_SET_NO":999,"REV_AT_EPOCH":404,"BSTAR":0.00021302874,"MEAN_MOTION_DOT":0.00031696,"MEAN_MOTION_DDOT":0},{"OBJECT_NAME":"STARLINK-36881","OBJECT_ID":"2026-038B","EPOCH":"2026-03-14T22:00:01.999584","MEAN_MOTION":15.75013437,"ECCENTRICITY":0.00014708,"INCLINATION":97.2857,"RA_OF_ASC_NODE":84.4824,"ARG_OF_PERICENTER":48.5226,"MEAN_ANOMALY":169.2725,"EPHEMERIS_TYPE":0,"CLASSIFICATION_TYPE":"U","NORAD_CAT_ID":67962,"ELEMENT_SET_NO":999,"REV_AT_EPOCH":404,"BSTAR":0.0018362751,"MEAN_MOTION_DOT":0.00280818,"MEAN_MOTION_DDOT":0},{"OBJECT_NAME":"STARLINK-36357","OBJECT_ID":"2026-038C","EPOCH":"2026-03-14T22:00:01.999584","MEAN_MOTION":15.75005885,"ECCENTRICITY":0.00010331,"INCLINATION":97.2857,"RA_OF_ASC_NODE":84.4871,"ARG_OF_PERICENTER":84.1119,"MEAN_ANOMALY":145.6878,"EPHEMERIS_TYPE":0,"CLASSIFICATION_TYPE":"U","NORAD_CAT_ID":67963,"ELEMENT_SET_NO":999,"REV_AT_EPOCH":404,"BSTAR":0.0019209145,"MEAN_MOTION_DOT":0.00294139,"MEAN_MOTION_DDOT":0},{"OBJECT_NAME":"STARLINK-36349","OBJECT_ID":"2026-038D","EPOCH":"2026-03-14T22:00:01.999584","MEAN_MOTION":15.75018571,"ECCENTRICITY":0.00013363,"INCLINATION":97.2859,"RA_OF_ASC_NODE":84.4829,"ARG_OF_PERICENTER":47.8149,"MEAN_ANOMALY":173.9643,"EPHEMERIS_TYPE":0,"CLASSIFICATION_TYPE":"U","NORAD_CAT_ID":67964,"ELEMENT_SET_NO":999,"REV_AT_EPOCH":404,"BSTAR":0.0018905571,"MEAN_MOTION_DOT":0.00289485,"MEAN_MOTION_DDOT":0},{"OBJECT_NAME":"STARLINK-36806","OBJECT_ID":"2026-038E","EPOCH":"2026-03-14T22:00:01.999584","MEAN_MOTION":15.750255,"ECCENTRICITY":0.00015099,"INCLINATION":97.2862,"RA_OF_ASC_NODE":84.4887,"ARG_OF_PERICENTER":91.6144,"MEAN_ANOMALY":144.1723,"EPHEMERIS_TYPE":0,"CLASSIFICATION_TYPE":"U","NORAD_CAT_ID":67965,"ELEMENT_SET_NO":999,"REV_AT_EPOCH":404,"BSTAR":0.0017258344,"MEAN_MOTION_DOT":0.00263517,"MEAN_MOTION_DDOT":0},{"OBJECT_NAME":"STARLINK-36820","OBJECT_ID":"2026-038F","EPOCH":"2026-03-14T22:00:01.999584","MEAN_MOTION":15.75021459,"ECCENTRICITY":0.00012622,"INCLINATION":97.2859,"RA_OF_ASC_NODE":84.4916,"ARG_OF_PERICENTER":94.1028,"MEAN_ANOMALY":147.6896,"EPHEMERIS_TYPE":0,"CLASSIFICATION_TYPE":"U","NORAD_CAT_ID":67966,"ELEMENT_SET_NO":999,"REV_AT_EPOCH":404,"BSTAR":0.0017653559,"MEAN_MOTION_DOT":0.00269706,"MEAN_MOTION_DDOT":0},{"OBJECT_NAME":"STARLINK-36819","OBJECT_ID":"2026-038G","EPOCH":"2026-03-14T22:00:01.999584","MEAN_MOTION":15.67610153,"ECCENTRICITY":0.0001699,"INCLINATION":97.2842,"RA_OF_ASC_NODE":84.4857,"ARG_OF_PERICENTER":87.0969,"MEAN_ANOMALY":140.3364,"EPHEMERIS_TYPE":0,"CLASSIFICATION_TYPE":"U","NORAD_CAT_ID":67967,"ELEMENT_SET_NO":999,"REV_AT_EPOCH":404,"BSTAR":-0.023813659,"MEAN_MOTION_DOT":-0.022435,"MEAN_MOTION_DDOT":0},{"OBJECT_NAME":"STARLINK-36812","OBJECT_ID":"2026-038H","EPOCH":"2026-03-14T22:00:01.999584","MEAN_MOTION":15.75045045,"ECCENTRICITY":0.00014227,"INCLINATION":97.2861,"RA_OF_ASC_NODE":84.4951,"ARG_OF_PERICENTER":76.5667,"MEAN_ANOMALY":177.2198,"EPHEMERIS_TYPE":0,"CLASSIFICATION_TYPE":"U","NORAD_CAT_ID":67968,"ELEMENT_SET_NO":999,"REV_AT_EPOCH":404,"BSTAR":0.0013864225,"MEAN_MOTION_DOT":0.00210521,"MEAN_MOTION_DDOT":0},{"OBJECT_NAME":"STARLINK-36709","OBJECT_ID":"2026-038J","EPOCH":"2026-03-14T22:00:01.999584","MEAN_MOTION":15.75010256,"ECCENTRICITY":0.00017814,"INCLINATION":97.2861,"RA_OF_ASC_NODE":84.5014,"ARG_OF_PERICENTER":68.5703,"MEAN_ANOMALY":199.2071,"EPHEMERIS_TYPE":0,"CLASSIFICATION_TYPE":"U","NORAD_CAT_ID":67969,"ELEMENT_SET_NO":999,"REV_AT_EPOCH":404,"BSTAR":0.0020333502,"MEAN_MOTION_DOT":0.00312081,"MEAN_MOTION_DDOT":0},{"OBJECT_NAME":"STARLINK-36319","OBJECT_ID":"2026-038K","EPOCH":"2026-03-14T22:00:01.999584","MEAN_MOTION":15.75154386,"ECCENTRICITY":0.00015012,"INCLINATION":97.2852,"RA_OF_ASC_NODE":84.4964,"ARG_OF_PERICENTER":119.2329,"MEAN_ANOMALY":142.5086,"EPHEMERIS_TYPE":0,"CLASSIFICATION_TYPE":"U","NORAD_CAT_ID":67970,"ELEMENT_SET_NO":999,"REV_AT_EPOCH":401,"BSTAR":-2.5028194e-5,"MEAN_MOTION_DOT":-3.855e-5,"MEAN_MOTION_DDOT":0},{"OBJECT_NAME":"STARLINK-36710","OBJECT_ID":"2026-038L","EPOCH":"2026-03-14T22:00:01.999584","MEAN_MOTION":15.75029377,"ECCENTRICITY":0.00011345,"INCLINATION":97.2858,"RA_OF_ASC_NODE":84.5059,"ARG_OF_PERICENTER":78.8291,"MEAN_ANOMALY":198.9405,"EPHEMERIS_TYPE":0,"CLASSIFICATION_TYPE":"U","NORAD_CAT_ID":67971,"ELEMENT_SET_NO":999,"REV_AT_EPOCH":404,"BSTAR":0.0017706853,"MEAN_MOTION_DOT":0.00270643,"MEAN_MOTION_DDOT":0}]
