STARLINK-36918          
1 67956U 26037AA  26073.73711782  .00429057  00000+0  19245-2 0  9994
2 67956  42.9986 167.3742 0001314 288.6923  71.3806 15.82196578  4056
STARLINK-36829          
1 67957U 26037AB  26073.67548521  .00306719  00000+0  13999-2 0  9996
2 67957  42.9985 167.7737 0001634 278.5401  81.5286 15.82142650  4044
STARLINK-36799          
1 67958U 26037AC  26073.73636518  .00324606  00000+0  14761-2 0  9991
2 67958  42.9983 167.3678 0001561 255.1788 104.8911 15.82174498  4051
STARLINK-36834          
1 67959U 26037AD  26073.73486903  .00290957  00000+0  13308-2 0  9990
2 67959  42.9984 167.3554 0001838 256.5740 103.4927 15.82136917  4052
STARLINK-36841          
1 67960U 26037AE  26073.73561416  .00319971  00000+0  14552-2 0  9995
2 67960  42.9984 167.3616 0001792 253.4021 106.6654 15.82183657  4055
STARLINK-36912          
1 67961U 26038A   26073.91668981  .00031696  00000+0  21303-3 0  9990
2 67961  97.2860  84.4796 0001931  88.6229 123.2441 15.75140238  4041
STARLINK-36881          
1 67962U 26038B   26073.91668981  .00280818  00000+0  18363-2 0  9994
2 67962  97.2857  84.4824 0001470  48.5226 169.2725 15.75013437  4045
STARLINK-36357          
1 67963U 26038C   26073.91668981  .00294139  00000+0  19209-2 0  9996
2 67963  97.2857  84.4871 0001033  84.1119 145.6878 15.75005885  4045
STARLINK-36349          
1 67964U 26038D   26073.91668981  .00289485  00000+0  18906-2 0  9998
2 67964  97.2859  84.4829 0001336  47.8149 173.9643 15.75018571  4046
STARLINK-36806          
1 67965U 26038E   26073.91668981  .00263517  00000+0  17258-2 0  9996
2 67965  97.2862  84.4887 0001509  91.6144 144.1723 15.75025500  4048
STARLINK-36820          
1 67966U 26038F   26073.91668981  .00269706  00000+0  17654-2 0  9993
2 67966  97.2859  84.4916 0001262  94.1028 147.6896 15.75021459  4041
STARLINK-36819          
1 67967U 26038G   26073.91668981 -.02243500  00000+0 -23814-1 0  9996
2 67967  97.2842  84.4857 0001699  87.0969 140.3364 15.67610153  4043
STARLINK-36812          
1 67968U 26038H   26073.91668981  .00210521  00000+0  13864-2 0  9995
2 67968  97.2861  84.4951 0001422  76.5667 177.2198 15.75045045  4047
STARLINK-36709          
1 67969U 26038J   26073.91668981  .00312081  00000+0  20334-2 0  9990
2 67969  97.2861  84.5014 0001781  68.5703 199.2071 15.75010256  4049
STARLINK-36319          
1 67970U 26038K   26073.91668981 -.00003855  00000+0 -25028-4 0  9997
2 67970  97.2852  84.4964 0001501 119.2329 142.5086 15.75154386  4019
STARLINK-36710          
1 67971U 26038L   26073.91668981  .00270643  00000+0  17707-2 0  9990
2 67971  97.2858  84.5059 0001134  78.8291 198.9405 15.75029377  4046
